H1 CPF  1  DLR 2021 01 26 10  5262 technosat            
H2  1704205 6203    42829 2021 01 26 00 00 00 2021 02 02 00 00 00    60 1 1  0 0 0
H9
10 0 59245  72000.000000  0      -5389899.900      -2197665.104      -3847883.983
10 0 59245  72060.000000  0      -5643676.084      -2196114.442      -3466676.214
10 0 59245  72120.000000  0      -5873677.856      -2183220.127      -3070797.539
10 0 59245  72180.000000  0      -6078835.253      -2159246.978      -2661920.411
10 0 59245  72240.000000  0      -6258185.381      -2124515.506      -2241773.300
10 0 59245  72300.000000  0      -6410877.194      -2079399.659      -1812133.345
10 0 59245  72360.000000  0      -6536175.740      -2024324.303      -1374818.732
10 0 59245  72420.000000  0      -6633465.853      -1959762.425       -931680.874
10 0 59245  72480.000000  0      -6702255.322      -1886232.109       -484596.430
10 0 59245  72540.000000  0      -6742177.484      -1804293.257        -35459.176
10 0 59245  72600.000000  0      -6752993.203      -1714544.093        413828.234
10 0 59245  72660.000000  0      -6734592.220      -1617617.482        861362.546
10 0 59245  72720.000000  0      -6686993.887      -1514177.086       1305248.174
10 0 59245  72780.000000  0      -6610347.266      -1404913.388       1743605.445
10 0 59245  72840.000000  0      -6504930.606      -1290539.600       2174578.740
10 0 59245  72900.000000  0      -6371150.192      -1171787.483       2596344.496
10 0 59245  72960.000000  0      -6209538.621      -1049403.082       3007119.031
10 0 59245  73020.000000  0      -6020752.500       -924142.412       3405166.221
10 0 59245  73080.000000  0      -5805569.484       -796767.122       3788804.947
10 0 59245  73140.000000  0      -5564884.696       -668040.207       4156416.180
10 0 59245  73200.000000  0      -5299706.685       -538721.764       4506449.699
10 0 59245  73260.000000  0      -5011152.941       -409564.804       4837430.489
10 0 59245  73320.000000  0      -4700444.957       -281311.139       5147964.800
10 0 59245  73380.000000  0      -4368902.876       -154687.367       5436745.869
10 0 59245  73440.000000  0      -4017939.647        -30400.985       5702559.299
10 0 59245  73500.000000  0      -3649054.778         90863.338       5944287.935
10 0 59245  73560.000000  0      -3263827.749        208447.336       6160916.349
10 0 59245  73620.000000  0      -2863911.112        321722.525       6351534.826
10 0 59245  73680.000000  0      -2451023.359        430093.346       6515342.980
10 0 59245  73740.000000  0      -2026941.478        533000.142       6651652.952
10 0 59245  73800.000000  0      -1593493.249        629921.939       6759892.076
10 0 59245  73860.000000  0      -1152549.428        720378.985       6839605.057
10 0 59245  73920.000000  0       -706015.776        803935.036       6890455.756
10 0 59245  73980.000000  0       -255824.911        880199.394       6912228.518
10 0 59245  74040.000000  0        196071.913        948828.698       6904829.027
10 0 59245  74100.000000  0        647713.125       1009528.456       6868284.754
10 0 59245  74160.000000  0       1097135.255       1062054.337       6802744.911
10 0 59245  74220.000000  0       1542381.353       1106213.169       6708479.933
10 0 59245  74280.000000  0       1981509.404       1141863.649       6585880.504
10 0 59245  74340.000000  0       2412600.717       1168916.786       6435456.134
10 0 59245  74400.000000  0       2833768.291       1187336.071       6257833.329
10 0 59245  74460.000000  0       3243165.163       1197137.349       6053753.210
10 0 59245  74520.000000  0       3638992.551       1198388.416       5824068.612
10 0 59245  74580.000000  0       4019507.789       1191208.344       5569740.768
10 0 59245  74640.000000  0       4383032.104       1175766.518       5291835.615
10 0 59245  74700.000000  0       4727958.210       1152281.408       4991519.688
10 0 59245  74760.000000  0       5052757.757       1121019.067       4670055.537
10 0 59245  74820.000000  0       5355988.458       1082291.356       4328796.578
10 0 59245  74880.000000  0       5636300.800       1036453.932       3969181.532
10 0 59245  74940.000000  0       5892444.425        983904.010       3592728.468
10 0 59245  75000.000000  0       6123274.022        925077.830       3201028.410
10 0 59245  75060.000000  0       6327754.716        860447.867       2795738.658
10 0 59245  75120.000000  0       6504967.080        790519.886       2378575.878
10 0 59245  75180.000000  0       6654111.760        715829.839       1951308.748
10 0 59245  75240.000000  0       6774513.374        636940.525       1515750.225
10 0 59245  75300.000000  0       6865623.766        554438.093       1073749.683
10 0 59245  75360.000000  0       6927024.754        468928.421        627184.939
10 0 59245  75420.000000  0       6958430.354        381033.391        177953.998
10 0 59245  75480.000000  0       6959688.188        291387.030       -272033.394
10 0 59245  75540.000000  0       6930780.241        200631.610       -720864.112
10 0 59245  75600.000000  0       6871823.031        109413.719      -1166630.093
10 0 59245  75660.000000  0       6783067.046         18380.307      -1607436.765
10 0 59245  75720.000000  0       6664895.521        -71825.292      -2041411.343
10 0 59245  75780.000000  0       6517822.621       -160567.293      -2466711.014
10 0 59245  75840.000000  0       6342490.983       -247221.333      -2881530.993
10 0 59245  75900.000000  0       6139668.622       -331178.269      -3284112.361
10 0 59245  75960.000000  0       5910245.243       -411847.862      -3672749.669
10 0 59245  76020.000000  0       5655227.971       -488662.333      -4045798.261
10 0 59245  76080.000000  0       5375736.509       -561079.760      -4401681.246
10 0 59245  76140.000000  0       5072997.847       -628587.280      -4738896.086
10 0 59245  76200.000000  0       4748340.547       -690704.128      -5056020.832
10 0 59245  76260.000000  0       4403188.587       -746984.500      -5351720.013
10 0 59245  76320.000000  0       4039054.806       -797020.200      -5624750.100
10 0 59245  76380.000000  0       3657533.968       -840443.096      -5873964.558
10 0 59245  76440.000000  0       3260295.488       -876927.305      -6098318.410
10 0 59245  76500.000000  0       2849075.909       -906191.097      -6296872.347
10 0 59245  76560.000000  0       2425671.144       -927998.529      -6468796.371
10 0 59245  76620.000000  0       1991928.534       -942160.847      -6613372.964
10 0 59245  76680.000000  0       1549738.752       -948537.668      -6729999.827
10 0 59245  76740.000000  0       1101027.549       -947037.903      -6818192.170
10 0 59245  76800.000000  0        647747.359       -937620.341      -6877584.559
10 0 59245  76860.000000  0        191868.805       -920293.951      -6907932.199
10 0 59245  76920.000000  0       -264627.728       -895117.959      -6909111.753
10 0 59245  76980.000000  0       -719760.557       -862201.645      -6881121.820
10 0 59245  77040.000000  0      -1171555.265       -821703.873      -6824082.914
10 0 59245  77100.000000  0      -1618053.175       -773832.297      -6738236.897
10 0 59245  77160.000000  0      -2057319.749       -718842.334      -6623945.970
10 0 59245  77220.000000  0      -2487452.851       -657035.890      -6481691.146
10 0 59245  77280.000000  0      -2906590.802       -588759.818      -6312070.358
10 0 59245  77340.000000  0      -3312920.362       -514404.110      -6115796.221
10 0 59245  77400.000000  0      -3704684.642       -434399.871      -5893693.306
10 0 59245  77460.000000  0      -4080190.810       -349217.016      -5646694.847
10 0 59245  77520.000000  0      -4437817.447       -259361.749      -5375838.991
10 0 59245  77580.000000  0      -4776021.629       -165373.839      -5082264.682
10 0 59245  77640.000000  0      -5093345.736        -67823.713      -4767207.128
10 0 59245  77700.000000  0      -5388423.968         32690.667      -4431992.870
10 0 59245  77760.000000  0      -5659988.544        135547.160      -4078034.388
10 0 59245  77820.000000  0      -5906875.400        240102.942      -3706824.230
10 0 59245  77880.000000  0      -6128029.427        345698.094      -3319928.855
10 0 59245  77940.000000  0      -6322509.335        451659.376      -2918982.127
10 0 59245  78000.000000  0      -6489491.943        557304.144      -2505678.390
10 0 59245  78060.000000  0      -6628275.888        661944.290      -2081765.294
10 0 59245  78120.000000  0      -6738284.878        764890.244      -1649036.415
10 0 59245  78180.000000  0      -6819070.430        865455.035      -1209323.519
10 0 59245  78240.000000  0      -6870313.877        962958.367       -764488.540
10 0 59245  78300.000000  0      -6891827.647       1056730.650       -316415.477
10 0 59245  78360.000000  0      -6883555.946       1146117.011        132997.708
10 0 59245  78420.000000  0      -6845574.923       1230481.245        581847.270
10 0 59245  78480.000000  0      -6778092.197       1309209.701       1028231.944
10 0 59245  78540.000000  0      -6681445.731       1381715.047       1470261.213
10 0 59245  78600.000000  0      -6556102.093       1447439.908       1906063.513
10 0 59245  78660.000000  0      -6402654.074       1505860.334       2333794.360
10 0 59245  78720.000000  0      -6221817.708       1556489.089       2751644.309
10 0 59245  78780.000000  0      -6014428.705       1598878.746       3157846.752
10 0 59245  78840.000000  0      -5781438.299       1632624.547       3550685.455
10 0 59245  78900.000000  0      -5523908.613       1657367.054       3928501.806
10 0 59245  78960.000000  0      -5243007.534       1672794.551       4289701.783
10 0 59245  79020.000000  0      -4940003.149       1678645.182       4632762.592
10 0 59245  79080.000000  0      -4616257.770       1674708.841       4956238.960
10 0 59245  79140.000000  0      -4273221.609       1660828.767       5258769.058
99
